
STARLINK-3619           
1 51787U 22017V   24322.74293417  .00001063  00000+0  84868-4 0  9997
2 51787  53.2183 330.2175 0001443  90.8601 269.2556 15.08842422151917
STARLINK-3641           
1 51788U 22017W   24321.25989107  .00001885  00000+0  13651-3 0  9994
2 51788  53.2170 336.8740 0001480  94.0524 266.0638 15.08841243151696
STARLINK-3639           
1 51789U 22017X   24322.73186510  .00002980  00000+0  20511-3 0  9996
2 51789  53.2189 330.2686 0001511  99.7874 260.3289 15.08864846151928
STARLINK-3631           
1 51790U 22017Y   24321.32244979 -.00000251  00000+0  23295-5 0  9990
2 51790  53.2169 336.5929 0001642  92.9745 267.1436 15.08837493151752
STARLINK-3602           
1 51791U 22017Z   24321.46597486 -.00000207  00000+0  50842-5 0  9999
2 51791  53.2166 335.9475 0001342  91.0274 269.0872 15.08833913151728
STARLINK-3626           
1 51792U 22017AA  24321.31509047  .00000519  00000+0  50710-4 0  9998
2 51792  53.2165 336.6255 0001668  87.5161 272.6022 15.08841576151752
STARLINK-3633           
1 51793U 22017AB  24321.26453305  .00001008  00000+0  81439-4 0  9994
2 51793  53.2165 336.8572 0001664  92.7287 267.3896 15.08837403151743
STARLINK-3573           
1 51794U 22017AC  24321.30773613  .00000396  00000+0  42962-4 0  9994
2 51794  53.2169 336.6600 0001377  86.7140 273.4009 15.08834178151706
STARLINK-3586           
1 51795U 22017AD  24321.26359807  .00000117  00000+0  25416-4 0  9991
2 51795  53.2183 337.0559 0001451  92.7442 267.3717 15.08836854151695
STARLINK-3634           
1 51798U 22017AG  24321.42549962  .00005154  00000+0  34165-3 0  9991
2 51798  53.2178 336.1317 0001612  94.8841 265.2335 15.08842796151762
STARLINK-3637           
1 51799U 22017AH  24321.30405673  .00000562  00000+0  53378-4 0  9995
2 51799  53.2185 336.6771 0001427  98.0396 262.0758 15.08833352151701
STARLINK-3592           
1 51801U 22017AK  24321.23413547  .00000338  00000+0  39362-4 0  9998
2 51801  53.2179 336.9916 0001514  97.9152 262.2012 15.08835020151694
STARLINK-3557           
1 51802U 22017AL  24321.78244976  .00000754  00000+0  65437-4 0  9991
2 51802  53.2188 334.5162 0001688 100.5244 259.5938 15.08842090151777
STARLINK-3544           
1 51803U 22017AM  24321.75300970  .00000736  00000+0  64320-4 0  9996
2 51803  53.2195 334.6629 0001540  96.5743 263.5425 15.08840960151769
STARLINK-3601           
1 51804U 22017AN  24322.69325531  .00002750  00000+0  19086-3 0  9997
2 51804  53.2180 310.4382 0001440  87.0453 273.0704 15.08832906152245
STARLINK-3605           
1 51805U 22017AP  24321.70334282  .00000799  00000+0  68291-4 0  9996
2 51805  53.2184 314.9597 0001376  91.3296 268.7854 15.08839427152082
STARLINK-3606           
1 51807U 22017AR  24321.71713386  .00000244  00000+0  33444-4 0  9992
2 51807  53.2170 324.8207 0001455  91.8967 268.2192 15.08836945151952
STARLINK-3609           
1 51808U 22017AS  24322.69601261  .00000498  00000+0  49385-4 0  9991
2 51808  53.2181 320.4224 0001505  84.0031 276.1133 15.08841206152059
STARLINK-3607           
1 51809U 22017AT  24321.24609019 -.00000244  00000+0  27830-5 0  9993
2 51809  53.2177 326.8950 0001460  93.7294 266.3865 15.08833011151832
STARLINK-3613           
1 51810U 22017AU  24321.28383983  .00001363  00000+0  10371-3 0  9990
2 51810  53.2157 316.9853 0001469  90.6407 269.4753 15.08837323151857
STARLINK-3569           
1 51811U 22017AV  24321.30865457 -.00000284  00000+0  22037-6 0  9992
2 51811  53.2176 326.6533 0001553  91.6951 268.4219 15.08837676151746
STARLINK-3610           
1 51812U 22017AW  24321.25069331  .00000768  00000+0  66323-4 0  9994
2 51812  53.2170 316.9151 0001392  88.7606 271.3545 15.08840616151859
STARLINK-3552           
1 51813U 22017AX  24321.69597811  .00000645  00000+0  58605-4 0  9990
2 51813  53.2180 314.9436 0001636  91.7634 268.3546 15.08838012152036
STARLINK-3599           
1 51814U 22017AY  24321.30957449  .00001796  00000+0  13089-3 0  9990
2 51814  53.2189 316.6494 0001520  96.7168 263.3997 15.08842234151987
STARLINK-3604           
1 51815U 22017AZ  24322.70428949 -.00000510  00000+0 -13955-4 0  9992
2 51815  53.2183 310.3915 0001486  79.6518 280.4642 15.08846731152198
STARLINK-3603           
1 51816U 22017BA  24321.39522377 -.00002706  00000+0 -15207-3 0  9997
2 51816  53.2185 316.5116 0001513  76.8053 283.3107 15.08815403152040
L-SAR 01B               
1 51822U 22018A   24322.81131151 -.00000036  00000+0  20032-5 0  9996
2 51822  97.8111 327.4701 0001660  89.7270 270.4137 14.88412437147971
JILIN-1 MF02A01         
1 51826U 22019C   24322.83535472  .00102774  00000+0  13746-2 0  9999
2 51826  97.4080  41.0184 0005887  18.4430 341.7038 15.57663023151199
JILIN-1 GAOFEN 03D14    
1 51831U 22019H   24322.83400975  .00020839  00000+0  76126-3 0  9997
2 51831  97.4212  35.7803 0012693  49.9499 310.2852 15.28054719150814
JILIN-1 GAOFEN 03D16    
1 51834U 22019L   24322.81184772  .00021515  00000+0  76833-3 0  9999
2 51834  97.4185  35.9613 0009218  55.7027 304.5084 15.28830493150823
JILIN-1 GAOFEN 03D11    
1 51835U 22019M   24322.77854823  .00020464  00000+0  73982-3 0  9990
2 51835  97.4220  35.9129 0009473  58.4789 301.7375 15.28435319150813
JILIN-1 GAOFEN 03D17    
1 51838U 22019Q   24322.81418177  .00033772  00000+0  85386-3 0  9993
2 51838  97.4196  38.0221 0008841  52.2435 307.9610 15.39675982150963
JILIN-1 GAOFEN 03D15    
1 51839U 22019R   24322.83184264  .00020539  00000+0  74535-3 0  9994
2 51839  97.4194  35.7329 0005971  62.8817 297.3031 15.28336616150827
JILIN-1 GAOFEN 03D10    
1 51840U 22019S   24322.79612113  .00021468  00000+0  76209-3 0  9992
2 51840  97.4195  36.0811 0002501  56.9855 303.1625 15.29063004150837
JILIN-1 GAOFEN 03D12    
1 51841U 22019T   24322.77913996  .00019627  00000+0  72427-3 0  9996
2 51841  97.4180  35.6620 0006027  48.9234 311.2525 15.27793490150818
JILIN-1 GAOFEN 03D18    
1 51844U 22019W   24322.78695547  .00019734  00000+0  72270-3 0  9994
2 51844  97.4177  35.4103 0012945  52.3113 307.9298 15.27981180150704
JILIN-1 GAOFEN 03D13    
1 51846U 22019Y   24322.80806006  .00020671  00000+0  75391-3 0  9992
2 51846  97.4175  35.6503 0007891  56.0280 304.1708 15.28157641150747
STRIX-BETA              
1 51847U 22020A   24322.81390172  .00023080  00000+0  99725-3 0  9992
2 51847  97.6351  27.0955 0010255 152.2925 207.8859 15.22443620149535
GOES 18                 
1 51850U 22021A   24322.55208205  .00000101  00000+0  00000+0 0  9996
2 51850   0.0065  60.1255 0000845 213.8839 204.8722  1.00271918 10029
STARLINK-3542           
1 51852U 22022A   24321.40066756  .00001010  00000+0  81566-4 0  9996
2 51852  53.2180   6.2408 0001269  90.8965 269.2172 15.08831884150806
STARLINK-3539           
1 51853U 22022B   24322.82476540  .00001513  00000+0  11315-3 0  9992
2 51853  53.2166 359.4644 0001411  92.9243 267.1910 15.08843783150973
STARLINK-3541           
1 51854U 22022C   24322.78801643  .00005614  00000+0  37047-3 0  9990
2 51854  53.2167   0.0129 0001625  87.7758 272.3420 15.08843725151029
STARLINK-3545           
1 51855U 22022D   24322.77328785 -.00000522  00000+0 -14734-4 0  9995
2 51855  53.2176   0.0018 0001544  89.2747 270.8422 15.08839716150975
STARLINK-3568           
1 51856U 22022E   24322.78529497  .00005139  00000+0  34071-3 0  9992
2 51856  53.2166   0.0355 0001463  89.9058 270.2102 15.08844310151056
STARLINK-3571           
1 51857U 22022F   24322.77425460  .00006910  00000+0  45173-3 0  9990
2 51857  53.2165   0.0863 0001414  83.4892 276.6261 15.08845710151029
STARLINK-3563           
1 51858U 22022G   24320.85601158  .00000664  00000+0  59837-4 0  9991
2 51858  53.2181   8.6877 0001729  80.4531 279.6656 15.08839318150738
STARLINK-3560           
1 51859U 22022H   24322.79357230 -.00000057  00000+0  14493-4 0  9992
2 51859  53.2185 350.0007 0001444  94.1429 265.9728 15.08843183151165
STARLINK-3559           
1 51860U 22022J   24321.27645475  .00000176  00000+0  29169-4 0  9994
2 51860  53.2177 356.8032 0001498  97.0195 263.0968 15.08833968150895
STARLINK-3562           
1 51861U 22022K   24322.78525251 -.00001167  00000+0 -55248-4 0  9991
2 51861  53.2186 350.0263 0001474  87.7654 272.3506 15.08845071151102
STARLINK-3508           
1 51862U 22022L   24322.79629524 -.00001291  00000+0 -63013-4 0  9998
2 51862  53.2188 349.9794 0001447  99.5402 260.5754 15.08841449151179
STARLINK-3555           
1 51863U 22022M   24321.38685079  .00002941  00000+0  20280-3 0  9999
2 51863  53.2164 356.3032 0001346 100.6550 259.4593 15.08837214150900
STARLINK-3548           
1 51864U 22022N   24321.25804532 -.00000521  00000+0 -14627-4 0  9996
2 51864  53.2176 356.7987 0001627 114.8510 245.2652 15.08834385150930
STARLINK-3503           
1 51865U 22022P   24322.37309268 -.00001031  00000+0 -46682-4 0  9990
2 51865  53.2164 351.8737 0001607  84.4478 275.6697 15.08844812151056
STARLINK-3553           
1 51866U 22022Q   24321.37675881 -.00000510  00000+0 -13959-4 0  9999
2 51866  53.2176 356.2046 0001352  98.1033 262.0112 15.08827624150905
STARLINK-3590           
1 51867U 22022R   24322.36941503 -.00000537  00000+0 -15659-4 0  9995
2 51867  53.2165 351.8927 0001336  88.7738 271.3407 15.08837437151052
STARLINK-3578           
1 51868U 22022S   24322.11181867  .00003658  00000+0  24777-3 0  9993
2 51868  53.2175 353.0459 0001794 116.0625 244.0552 15.08847823151010
STARLINK-3588           
1 51869U 22022T   24321.43100930  .00003426  00000+0  23318-3 0  9993
2 51869  53.2159 356.1041 0001437  96.9075 263.2081 15.08845028150916
STARLINK-3591           
1 51870U 22022U   24321.37213115  .00001733  00000+0  12698-3 0  9996
2 51870  53.2175 356.3673 0001709 100.0533 260.0652 15.08840458150952
